[{"OBJECT_NAME":"METEOR-M2 4","OBJECT_ID":"2024-039A","EPOCH":"2026-03-10T00:01:13.262016","MEAN_MOTION":14.22417348,"ECCENTRICITY":0.0008181,"INCLINATION":98.6907,"RA_OF_ASC_NODE":29.6041,"ARG_OF_PERICENTER":95.5481,"MEAN_ANOMALY":264.6631,"EPHEMERIS_TYPE":0,"CLASSIFICATION_TYPE":"U","NORAD_CAT_ID":59051,"ELEMENT_SET_NO":999,"REV_AT_EPOCH":10516,"BSTAR":5.4288673e-5,"MEAN_MOTION_DOT":7.7e-7,"MEAN_MOTION_DDOT":0},{"OBJECT_NAME":"COSMOS 397 DEB","OBJECT_ID":"1971-015BR","EPOCH":"2026-03-09T15:23:01.730400","MEAN_MOTION":14.15475916,"ECCENTRICITY":0.00692,"INCLINATION":66.8704,"RA_OF_ASC_NODE":169.1217,"ARG_OF_PERICENTER":30.1521,"MEAN_ANOMALY":330.3525,"EPHEMERIS_TYPE":0,"CLASSIFICATION_TYPE":"U","NORAD_CAT_ID":5527,"ELEMENT_SET_NO":999,"REV_AT_EPOCH":77634,"BSTAR":0.0011532,"MEAN_MOTION_DOT":2.227e-5,"MEAN_MOTION_DDOT":0}]
